<?xml version="1.0" encoding="UTF-8" standalone="no" ?>
<gpx xmlns="http://www.topografix.com/GPX/1/1" xmlns:gpxtrx="http://www.garmin.com/xmlschemas/GpxExtensions/v3" xmlns:gpxtpx="http://www.garmin.com/xmlschemas/TrackPointExtension/v1" xmlns:gpxx="http://www.garmin.com/xmlschemas/GpxExtensions/v3" creator="Hiking Logger v3.6.2 b287" version="1.1" xmlns:xsi="http://www.w3.org/2001/XMLSchema-instance" xsi:schemaLocation="http://www.topografix.com/GPX/1/1 http://www.topografix.com/GPX/1/1/gpx.xsd http://www.garmin.com/xmlschemas/TrackPointExtension/v1 http://www.garmin.com/xmlschemas/TrackPointExtensionv1.xsd http://www.garmin.com/xmlschemas/GpxExtensions/v3 http://www8.garmin.com/xmlschemas/GpxExtensionsv3.xsd">
<metadata>
<name><![CDATA[陽明山富士溪2024-09-08_09.30.49]]></name>
<link href="www.ccmedia.com.tw">
<text>Hiking Logger</text>
</link>
<time>2024-09-08T07:29:08Z</time>
</metadata>
<trk>
<name><![CDATA[2024-09-08_09.30.49]]></name>
<extensions>
<gpxx:TrackExtension>
<gpxx:DisplayColor>Red</gpxx:DisplayColor>
</gpxx:TrackExtension>
</extensions>
<trkseg>
<trkpt lat="25.159501" lon="121.623181">
<ele>278.1</ele>
<time>2024-09-08T01:30:50Z</time>
</trkpt>
<trkpt lat="25.159454" lon="121.623187">
<ele>291.6</ele>
<time>2024-09-08T01:31:10Z</time>
</trkpt>
<trkpt lat="25.159365" lon="121.623209">
<ele>289.1</ele>
<time>2024-09-08T01:31:31Z</time>
</trkpt>
<trkpt lat="25.15944" lon="121.623106">
<ele>280.3</ele>
<time>2024-09-08T01:31:52Z</time>
</trkpt>
<trkpt lat="25.159343" lon="121.623063">
<ele>289.3</ele>
<time>2024-09-08T01:32:13Z</time>
</trkpt>
<trkpt lat="25.159231" lon="121.622932">
<ele>287.1</ele>
<time>2024-09-08T01:32:34Z</time>
</trkpt>
<trkpt lat="25.159255" lon="121.62289">
<ele>288.1</ele>
<time>2024-09-08T01:32:54Z</time>
</trkpt>
<trkpt lat="25.159285" lon="121.622846">
<ele>285.9</ele>
<time>2024-09-08T01:33:14Z</time>
</trkpt>
<trkpt lat="25.159338" lon="121.622856">
<ele>287.3</ele>
<time>2024-09-08T01:35:24Z</time>
</trkpt>
<trkpt lat="25.159316" lon="121.622752">
<ele>298.7</ele>
<time>2024-09-08T01:35:44Z</time>
</trkpt>
<trkpt lat="25.15935" lon="121.622698">
<ele>298.6</ele>
<time>2024-09-08T01:36:06Z</time>
</trkpt>
<trkpt lat="25.159293" lon="121.622644">
<ele>294.1</ele>
<time>2024-09-08T01:36:26Z</time>
</trkpt>
<trkpt lat="25.159283" lon="121.622589">
<ele>294.5</ele>
<time>2024-09-08T01:36:47Z</time>
</trkpt>
<trkpt lat="25.159297" lon="121.622504">
<ele>295.1</ele>
<time>2024-09-08T01:37:07Z</time>
</trkpt>
<trkpt lat="25.159276" lon="121.622427">
<ele>296.7</ele>
<time>2024-09-08T01:37:27Z</time>
</trkpt>
<trkpt lat="25.159273" lon="121.622363">
<ele>298.1</ele>
<time>2024-09-08T01:37:48Z</time>
</trkpt>
<trkpt lat="25.159297" lon="121.622299">
<ele>294.5</ele>
<time>2024-09-08T01:38:16Z</time>
</trkpt>
<trkpt lat="25.159204" lon="121.622156">
<ele>299.4</ele>
<time>2024-09-08T01:38:36Z</time>
</trkpt>
<trkpt lat="25.159168" lon="121.622117">
<ele>300.1</ele>
<time>2024-09-08T01:38:57Z</time>
</trkpt>
<trkpt lat="25.159147" lon="121.622069">
<ele>294.9</ele>
<time>2024-09-08T01:39:26Z</time>
</trkpt>
<trkpt lat="25.159086" lon="121.621959">
<ele>299.8</ele>
<time>2024-09-08T01:39:46Z</time>
</trkpt>
<trkpt lat="25.159044" lon="121.62194">
<ele>302.6</ele>
<time>2024-09-08T01:40:06Z</time>
</trkpt>
<trkpt lat="25.159041" lon="121.621877">
<ele>304</ele>
<time>2024-09-08T01:40:41Z</time>
</trkpt>
<trkpt lat="25.159018" lon="121.621821">
<ele>307.2</ele>
<time>2024-09-08T01:41:07Z</time>
</trkpt>
<trkpt lat="25.159054" lon="121.621642">
<ele>307.1</ele>
<time>2024-09-08T01:41:28Z</time>
</trkpt>
<trkpt lat="25.159015" lon="121.621696">
<ele>311.5</ele>
<time>2024-09-08T01:41:48Z</time>
</trkpt>
<trkpt lat="25.158935" lon="121.621691">
<ele>320.5</ele>
<time>2024-09-08T01:42:08Z</time>
</trkpt>
<trkpt lat="25.158869" lon="121.621704">
<ele>312.9</ele>
<time>2024-09-08T01:42:28Z</time>
</trkpt>
<trkpt lat="25.158826" lon="121.621663">
<ele>313.6</ele>
<time>2024-09-08T01:42:48Z</time>
</trkpt>
<trkpt lat="25.158836" lon="121.621597">
<ele>315.6</ele>
<time>2024-09-08T01:43:09Z</time>
</trkpt>
<trkpt lat="25.158861" lon="121.62151">
<ele>311.9</ele>
<time>2024-09-08T01:43:42Z</time>
</trkpt>
<trkpt lat="25.158835" lon="121.621565">
<ele>312.6</ele>
<time>2024-09-08T01:44:09Z</time>
</trkpt>
<trkpt lat="25.158881" lon="121.621591">
<ele>312.8</ele>
<time>2024-09-08T01:44:31Z</time>
</trkpt>
<trkpt lat="25.158852" lon="121.621689">
<ele>313.8</ele>
<time>2024-09-08T01:44:51Z</time>
</trkpt>
<trkpt lat="25.158835" lon="121.621576">
<ele>311.6</ele>
<time>2024-09-08T01:45:12Z</time>
</trkpt>
<trkpt lat="25.158793" lon="121.621552">
<ele>312.4</ele>
<time>2024-09-08T01:45:50Z</time>
</trkpt>
<trkpt lat="25.158772" lon="121.621508">
<ele>313.3</ele>
<time>2024-09-08T01:46:10Z</time>
</trkpt>
<trkpt lat="25.158773" lon="121.621598">
<ele>313.5</ele>
<time>2024-09-08T01:46:30Z</time>
</trkpt>
<trkpt lat="25.158743" lon="121.621453">
<ele>314.3</ele>
<time>2024-09-08T01:46:50Z</time>
</trkpt>
<trkpt lat="25.158761" lon="121.621375">
<ele>311.5</ele>
<time>2024-09-08T01:47:38Z</time>
</trkpt>
<trkpt lat="25.158667" lon="121.621295">
<ele>322.1</ele>
<time>2024-09-08T01:47:59Z</time>
</trkpt>
<trkpt lat="25.158675" lon="121.621244">
<ele>319.2</ele>
<time>2024-09-08T01:48:22Z</time>
</trkpt>
<trkpt lat="25.158646" lon="121.621156">
<ele>317.2</ele>
<time>2024-09-08T01:48:42Z</time>
</trkpt>
<trkpt lat="25.15872" lon="121.621056">
<ele>320.5</ele>
<time>2024-09-08T01:49:02Z</time>
</trkpt>
<trkpt lat="25.158637" lon="121.621073">
<ele>322.4</ele>
<time>2024-09-08T01:49:22Z</time>
</trkpt>
<trkpt lat="25.158779" lon="121.621068">
<ele>321.6</ele>
<time>2024-09-08T01:49:43Z</time>
</trkpt>
<trkpt lat="25.158744" lon="121.620908">
<ele>321.1</ele>
<time>2024-09-08T01:50:04Z</time>
</trkpt>
<trkpt lat="25.158818" lon="121.620806">
<ele>322.6</ele>
<time>2024-09-08T01:50:25Z</time>
</trkpt>
<trkpt lat="25.158786" lon="121.62077">
<ele>326.1</ele>
<time>2024-09-08T01:51:03Z</time>
</trkpt>
<trkpt lat="25.158777" lon="121.620718">
<ele>325.7</ele>
<time>2024-09-08T01:51:23Z</time>
</trkpt>
<trkpt lat="25.158741" lon="121.620757">
<ele>325.5</ele>
<time>2024-09-08T01:51:44Z</time>
</trkpt>
<trkpt lat="25.158737" lon="121.620702">
<ele>327.5</ele>
<time>2024-09-08T01:52:20Z</time>
</trkpt>
<trkpt lat="25.158737" lon="121.620762">
<ele>348.1</ele>
<time>2024-09-08T01:52:43Z</time>
</trkpt>
<trkpt lat="25.158734" lon="121.620705">
<ele>332.2</ele>
<time>2024-09-08T01:53:05Z</time>
</trkpt>
<trkpt lat="25.158765" lon="121.620765">
<ele>329.3</ele>
<time>2024-09-08T01:53:26Z</time>
</trkpt>
<trkpt lat="25.158696" lon="121.620751">
<ele>334.5</ele>
<time>2024-09-08T01:53:58Z</time>
</trkpt>
<trkpt lat="25.158759" lon="121.620743">
<ele>328.5</ele>
<time>2024-09-08T01:54:19Z</time>
</trkpt>
<trkpt lat="25.15879" lon="121.620802">
<ele>325.9</ele>
<time>2024-09-08T01:54:45Z</time>
</trkpt>
<trkpt lat="25.158735" lon="121.620788">
<ele>325.9</ele>
<time>2024-09-08T01:55:18Z</time>
</trkpt>
<trkpt lat="25.158772" lon="121.620817">
<ele>327.3</ele>
<time>2024-09-08T01:55:51Z</time>
</trkpt>
<trkpt lat="25.15881" lon="121.62076">
<ele>324.9</ele>
<time>2024-09-08T01:56:46Z</time>
</trkpt>
<trkpt lat="25.158848" lon="121.620645">
<ele>323</ele>
<time>2024-09-08T01:57:07Z</time>
</trkpt>
<trkpt lat="25.158836" lon="121.620552">
<ele>327.2</ele>
<time>2024-09-08T01:57:28Z</time>
</trkpt>
<trkpt lat="25.158747" lon="121.620515">
<ele>329</ele>
<time>2024-09-08T01:57:48Z</time>
</trkpt>
<trkpt lat="25.158803" lon="121.620457">
<ele>332.3</ele>
<time>2024-09-08T01:58:09Z</time>
</trkpt>
<trkpt lat="25.158787" lon="121.620374">
<ele>331.5</ele>
<time>2024-09-08T01:58:30Z</time>
</trkpt>
<trkpt lat="25.15879" lon="121.620289">
<ele>331.7</ele>
<time>2024-09-08T01:58:51Z</time>
</trkpt>
<trkpt lat="25.158758" lon="121.62021">
<ele>340.4</ele>
<time>2024-09-08T01:59:12Z</time>
</trkpt>
<trkpt lat="25.158837" lon="121.620123">
<ele>338</ele>
<time>2024-09-08T01:59:33Z</time>
</trkpt>
<trkpt lat="25.158786" lon="121.62011">
<ele>342.5</ele>
<time>2024-09-08T01:59:59Z</time>
</trkpt>
<trkpt lat="25.158839" lon="121.620152">
<ele>341.4</ele>
<time>2024-09-08T02:00:20Z</time>
</trkpt>
<trkpt lat="25.158878" lon="121.620179">
<ele>330.1</ele>
<time>2024-09-08T02:00:48Z</time>
</trkpt>
<trkpt lat="25.158837" lon="121.62014">
<ele>333.5</ele>
<time>2024-09-08T02:01:11Z</time>
</trkpt>
<trkpt lat="25.158886" lon="121.620176">
<ele>337.8</ele>
<time>2024-09-08T02:01:32Z</time>
</trkpt>
<trkpt lat="25.158711" lon="121.620103">
<ele>336.6</ele>
<time>2024-09-08T02:01:53Z</time>
</trkpt>
<trkpt lat="25.158797" lon="121.620158">
<ele>333.4</ele>
<time>2024-09-08T02:02:13Z</time>
</trkpt>
<trkpt lat="25.158762" lon="121.620099">
<ele>331.4</ele>
<time>2024-09-08T02:02:34Z</time>
</trkpt>
<trkpt lat="25.158706" lon="121.620086">
<ele>339.1</ele>
<time>2024-09-08T02:03:51Z</time>
</trkpt>
<trkpt lat="25.158862" lon="121.620032">
<ele>351.7</ele>
<time>2024-09-08T02:04:11Z</time>
</trkpt>
<trkpt lat="25.158711" lon="121.62004">
<ele>341.5</ele>
<time>2024-09-08T02:04:32Z</time>
</trkpt>
<trkpt lat="25.158776" lon="121.619982">
<ele>347.9</ele>
<time>2024-09-08T02:04:53Z</time>
</trkpt>
<trkpt lat="25.158711" lon="121.620004">
<ele>346.5</ele>
<time>2024-09-08T02:05:16Z</time>
</trkpt>
<trkpt lat="25.158664" lon="121.620006">
<ele>347.3</ele>
<time>2024-09-08T02:05:37Z</time>
</trkpt>
<trkpt lat="25.158923" lon="121.620044">
<ele>344.6</ele>
<time>2024-09-08T02:05:58Z</time>
</trkpt>
<trkpt lat="25.158903" lon="121.619956">
<ele>343.9</ele>
<time>2024-09-08T02:06:18Z</time>
</trkpt>
<trkpt lat="25.158953" lon="121.619907">
<ele>356.7</ele>
<time>2024-09-08T02:06:49Z</time>
</trkpt>
<trkpt lat="25.158906" lon="121.619938">
<ele>343.9</ele>
<time>2024-09-08T02:07:19Z</time>
</trkpt>
<trkpt lat="25.158862" lon="121.61996">
<ele>314.6</ele>
<time>2024-09-08T02:08:05Z</time>
</trkpt>
<trkpt lat="25.158818" lon="121.619944">
<ele>339.3</ele>
<time>2024-09-08T02:08:25Z</time>
</trkpt>
<trkpt lat="25.158747" lon="121.619928">
<ele>339.8</ele>
<time>2024-09-08T02:08:46Z</time>
</trkpt>
<trkpt lat="25.158843" lon="121.619933">
<ele>340.7</ele>
<time>2024-09-08T02:09:22Z</time>
</trkpt>
<trkpt lat="25.15888" lon="121.619897">
<ele>342.5</ele>
<time>2024-09-08T02:10:54Z</time>
</trkpt>
<trkpt lat="25.158788" lon="121.619986">
<ele>338.5</ele>
<time>2024-09-08T02:11:15Z</time>
</trkpt>
<trkpt lat="25.158824" lon="121.619878">
<ele>343.1</ele>
<time>2024-09-08T02:12:38Z</time>
</trkpt>
<trkpt lat="25.158788" lon="121.619845">
<ele>339.5</ele>
<time>2024-09-08T02:13:11Z</time>
</trkpt>
<trkpt lat="25.15882" lon="121.619897">
<ele>342.2</ele>
<time>2024-09-08T02:13:46Z</time>
</trkpt>
<trkpt lat="25.158774" lon="121.619879">
<ele>339.5</ele>
<time>2024-09-08T02:14:56Z</time>
</trkpt>
<trkpt lat="25.158819" lon="121.619898">
<ele>340.7</ele>
<time>2024-09-08T02:16:30Z</time>
</trkpt>
<trkpt lat="25.158868" lon="121.619943">
<ele>342.4</ele>
<time>2024-09-08T02:17:49Z</time>
</trkpt>
<trkpt lat="25.158883" lon="121.61989">
<ele>341</ele>
<time>2024-09-08T02:19:05Z</time>
</trkpt>
<trkpt lat="25.158834" lon="121.619895">
<ele>344.4</ele>
<time>2024-09-08T02:19:33Z</time>
</trkpt>
<trkpt lat="25.15882" lon="121.619944">
<ele>344.1</ele>
<time>2024-09-08T02:19:54Z</time>
</trkpt>
<trkpt lat="25.158879" lon="121.619966">
<ele>341.9</ele>
<time>2024-09-08T02:20:19Z</time>
</trkpt>
<trkpt lat="25.1588" lon="121.619912">
<ele>344.2</ele>
<time>2024-09-08T02:20:40Z</time>
</trkpt>
<trkpt lat="25.158789" lon="121.619855">
<ele>342.5</ele>
<time>2024-09-08T02:21:03Z</time>
</trkpt>
<trkpt lat="25.158741" lon="121.619859">
<ele>341.9</ele>
<time>2024-09-08T02:24:48Z</time>
</trkpt>
<trkpt lat="25.158775" lon="121.619811">
<ele>342.4</ele>
<time>2024-09-08T02:26:01Z</time>
</trkpt>
<trkpt lat="25.158842" lon="121.619814">
<ele>341.5</ele>
<time>2024-09-08T02:26:22Z</time>
</trkpt>
<trkpt lat="25.15885" lon="121.619765">
<ele>341.1</ele>
<time>2024-09-08T02:26:44Z</time>
</trkpt>
<trkpt lat="25.158893" lon="121.61973">
<ele>339.8</ele>
<time>2024-09-08T02:27:11Z</time>
</trkpt>
<trkpt lat="25.158955" lon="121.619755">
<ele>342.3</ele>
<time>2024-09-08T02:27:32Z</time>
</trkpt>
<trkpt lat="25.158911" lon="121.619653">
<ele>339.1</ele>
<time>2024-09-08T02:27:53Z</time>
</trkpt>
<trkpt lat="25.158923" lon="121.619556">
<ele>340.7</ele>
<time>2024-09-08T02:28:14Z</time>
</trkpt>
<trkpt lat="25.158951" lon="121.619613">
<ele>346.6</ele>
<time>2024-09-08T02:28:47Z</time>
</trkpt>
<trkpt lat="25.158971" lon="121.619489">
<ele>348.3</ele>
<time>2024-09-08T02:29:08Z</time>
</trkpt>
<trkpt lat="25.158924" lon="121.619504">
<ele>348.6</ele>
<time>2024-09-08T02:29:28Z</time>
</trkpt>
<trkpt lat="25.159027" lon="121.61945">
<ele>350.6</ele>
<time>2024-09-08T02:29:49Z</time>
</trkpt>
<trkpt lat="25.158985" lon="121.619425">
<ele>349.6</ele>
<time>2024-09-08T02:30:10Z</time>
</trkpt>
<trkpt lat="25.158943" lon="121.619402">
<ele>350.2</ele>
<time>2024-09-08T02:30:34Z</time>
</trkpt>
<trkpt lat="25.158941" lon="121.61946">
<ele>351</ele>
<time>2024-09-08T02:31:02Z</time>
</trkpt>
<trkpt lat="25.158989" lon="121.619496">
<ele>350.2</ele>
<time>2024-09-08T02:31:27Z</time>
</trkpt>
<trkpt lat="25.158939" lon="121.619382">
<ele>353.4</ele>
<time>2024-09-08T02:31:48Z</time>
</trkpt>
<trkpt lat="25.158883" lon="121.619379">
<ele>344.1</ele>
<time>2024-09-08T02:32:09Z</time>
</trkpt>
<trkpt lat="25.158971" lon="121.619402">
<ele>347.3</ele>
<time>2024-09-08T02:32:30Z</time>
</trkpt>
<trkpt lat="25.158926" lon="121.619407">
<ele>348.8</ele>
<time>2024-09-08T02:32:54Z</time>
</trkpt>
<trkpt lat="25.159007" lon="121.619381">
<ele>351.6</ele>
<time>2024-09-08T02:33:15Z</time>
</trkpt>
<trkpt lat="25.159031" lon="121.619432">
<ele>350.2</ele>
<time>2024-09-08T02:33:36Z</time>
</trkpt>
<trkpt lat="25.159067" lon="121.619504">
<ele>349.6</ele>
<time>2024-09-08T02:33:57Z</time>
</trkpt>
<trkpt lat="25.159026" lon="121.619459">
<ele>354.1</ele>
<time>2024-09-08T02:34:23Z</time>
</trkpt>
<trkpt lat="25.158962" lon="121.619338">
<ele>351.1</ele>
<time>2024-09-08T02:34:44Z</time>
</trkpt>
<trkpt lat="25.158927" lon="121.619214">
<ele>349.9</ele>
<time>2024-09-08T02:35:05Z</time>
</trkpt>
<trkpt lat="25.158994" lon="121.619221">
<ele>349.6</ele>
<time>2024-09-08T02:35:29Z</time>
</trkpt>
<trkpt lat="25.158976" lon="121.619282">
<ele>358.4</ele>
<time>2024-09-08T02:36:07Z</time>
</trkpt>
<trkpt lat="25.159021" lon="121.619133">
<ele>355</ele>
<time>2024-09-08T02:36:28Z</time>
</trkpt>
<trkpt lat="25.158989" lon="121.619087">
<ele>350.8</ele>
<time>2024-09-08T02:36:49Z</time>
</trkpt>
<trkpt lat="25.158956" lon="121.619167">
<ele>354.3</ele>
<time>2024-09-08T02:37:10Z</time>
</trkpt>
<trkpt lat="25.158906" lon="121.619041">
<ele>354.4</ele>
<time>2024-09-08T02:37:30Z</time>
</trkpt>
<trkpt lat="25.158948" lon="121.61908">
<ele>357.1</ele>
<time>2024-09-08T02:37:56Z</time>
</trkpt>
<trkpt lat="25.158968" lon="121.619027">
<ele>357.1</ele>
<time>2024-09-08T02:38:33Z</time>
</trkpt>
<trkpt lat="25.158923" lon="121.619014">
<ele>363</ele>
<time>2024-09-08T02:39:04Z</time>
</trkpt>
<trkpt lat="25.158964" lon="121.61909">
<ele>346.1</ele>
<time>2024-09-08T02:39:25Z</time>
</trkpt>
<trkpt lat="25.158927" lon="121.619061">
<ele>358.1</ele>
<time>2024-09-08T02:39:45Z</time>
</trkpt>
<trkpt lat="25.158969" lon="121.619085">
<ele>364.3</ele>
<time>2024-09-08T02:40:40Z</time>
</trkpt>
<trkpt lat="25.15891" lon="121.619093">
<ele>364.6</ele>
<time>2024-09-08T02:41:01Z</time>
</trkpt>
<trkpt lat="25.158954" lon="121.619051">
<ele>357.8</ele>
<time>2024-09-08T02:41:27Z</time>
</trkpt>
<trkpt lat="25.159025" lon="121.619015">
<ele>362.4</ele>
<time>2024-09-08T02:41:48Z</time>
</trkpt>
<trkpt lat="25.158997" lon="121.619074">
<ele>362.5</ele>
<time>2024-09-08T02:42:41Z</time>
</trkpt>
<trkpt lat="25.159114" lon="121.619038">
<ele>364</ele>
<time>2024-09-08T02:43:02Z</time>
</trkpt>
<trkpt lat="25.158992" lon="121.618989">
<ele>363.8</ele>
<time>2024-09-08T02:43:34Z</time>
</trkpt>
<trkpt lat="25.159047" lon="121.61901">
<ele>366</ele>
<time>2024-09-08T02:44:21Z</time>
</trkpt>
<trkpt lat="25.159107" lon="121.618996">
<ele>365.6</ele>
<time>2024-09-08T02:44:42Z</time>
</trkpt>
<trkpt lat="25.159036" lon="121.618999">
<ele>363.1</ele>
<time>2024-09-08T02:45:03Z</time>
</trkpt>
<trkpt lat="25.159044" lon="121.619054">
<ele>365.3</ele>
<time>2024-09-08T02:45:40Z</time>
</trkpt>
<trkpt lat="25.159071" lon="121.619015">
<ele>365.3</ele>
<time>2024-09-08T02:46:02Z</time>
</trkpt>
<trkpt lat="25.159004" lon="121.618978">
<ele>364.2</ele>
<time>2024-09-08T02:46:22Z</time>
</trkpt>
<trkpt lat="25.159046" lon="121.619024">
<ele>361.9</ele>
<time>2024-09-08T02:46:43Z</time>
</trkpt>
<trkpt lat="25.159004" lon="121.618989">
<ele>362.5</ele>
<time>2024-09-08T02:47:06Z</time>
</trkpt>
<trkpt lat="25.158955" lon="121.619016">
<ele>352.2</ele>
<time>2024-09-08T02:47:42Z</time>
</trkpt>
<trkpt lat="25.158974" lon="121.618957">
<ele>355.5</ele>
<time>2024-09-08T02:48:04Z</time>
</trkpt>
<trkpt lat="25.158924" lon="121.61893">
<ele>361.5</ele>
<time>2024-09-08T02:48:24Z</time>
</trkpt>
<trkpt lat="25.158897" lon="121.618886">
<ele>356.1</ele>
<time>2024-09-08T02:48:50Z</time>
</trkpt>
<trkpt lat="25.158943" lon="121.618812">
<ele>354.9</ele>
<time>2024-09-08T02:49:11Z</time>
</trkpt>
<trkpt lat="25.158912" lon="121.618849">
<ele>353.6</ele>
<time>2024-09-08T02:49:58Z</time>
</trkpt>
<trkpt lat="25.158868" lon="121.618824">
<ele>350.1</ele>
<time>2024-09-08T02:50:18Z</time>
</trkpt>
<trkpt lat="25.158809" lon="121.618811">
<ele>354.9</ele>
<time>2024-09-08T02:50:53Z</time>
</trkpt>
<trkpt lat="25.158899" lon="121.61881">
<ele>355.7</ele>
<time>2024-09-08T02:51:14Z</time>
</trkpt>
<trkpt lat="25.158939" lon="121.618718">
<ele>358</ele>
<time>2024-09-08T02:51:35Z</time>
</trkpt>
<trkpt lat="25.158906" lon="121.618784">
<ele>356.6</ele>
<time>2024-09-08T02:51:56Z</time>
</trkpt>
<trkpt lat="25.158826" lon="121.618819">
<ele>356.6</ele>
<time>2024-09-08T02:53:15Z</time>
</trkpt>
<trkpt lat="25.158872" lon="121.618753">
<ele>358.9</ele>
<time>2024-09-08T02:54:38Z</time>
</trkpt>
<trkpt lat="25.158909" lon="121.618719">
<ele>359.5</ele>
<time>2024-09-08T02:56:05Z</time>
</trkpt>
<trkpt lat="25.158918" lon="121.618768">
<ele>356.2</ele>
<time>2024-09-08T02:56:40Z</time>
</trkpt>
<trkpt lat="25.158875" lon="121.618847">
<ele>359.4</ele>
<time>2024-09-08T02:58:04Z</time>
</trkpt>
<trkpt lat="25.158931" lon="121.618824">
<ele>353.5</ele>
<time>2024-09-08T02:58:25Z</time>
</trkpt>
<trkpt lat="25.158969" lon="121.618791">
<ele>358.9</ele>
<time>2024-09-08T02:58:50Z</time>
</trkpt>
<trkpt lat="25.158946" lon="121.618739">
<ele>361.3</ele>
<time>2024-09-08T02:59:35Z</time>
</trkpt>
<trkpt lat="25.15895" lon="121.618806">
<ele>360.4</ele>
<time>2024-09-08T02:59:56Z</time>
</trkpt>
<trkpt lat="25.15893" lon="121.618862">
<ele>359.9</ele>
<time>2024-09-08T03:00:17Z</time>
</trkpt>
<trkpt lat="25.158926" lon="121.618807">
<ele>352.1</ele>
<time>2024-09-08T03:01:39Z</time>
</trkpt>
<trkpt lat="25.158932" lon="121.618757">
<ele>354.8</ele>
<time>2024-09-08T03:02:00Z</time>
</trkpt>
<trkpt lat="25.158882" lon="121.61887">
<ele>357.4</ele>
<time>2024-09-08T03:02:21Z</time>
</trkpt>
<trkpt lat="25.158924" lon="121.618915">
<ele>358.8</ele>
<time>2024-09-08T03:03:04Z</time>
</trkpt>
<trkpt lat="25.158936" lon="121.618978">
<ele>359.3</ele>
<time>2024-09-08T03:03:25Z</time>
</trkpt>
<trkpt lat="25.158927" lon="121.61893">
<ele>358.8</ele>
<time>2024-09-08T03:03:46Z</time>
</trkpt>
<trkpt lat="25.158917" lon="121.618861">
<ele>365.7</ele>
<time>2024-09-08T03:04:45Z</time>
</trkpt>
<trkpt lat="25.158921" lon="121.618775">
<ele>363.2</ele>
<time>2024-09-08T03:05:05Z</time>
</trkpt>
<trkpt lat="25.158873" lon="121.618806">
<ele>356.1</ele>
<time>2024-09-08T03:06:07Z</time>
</trkpt>
<trkpt lat="25.158878" lon="121.618728">
<ele>365.4</ele>
<time>2024-09-08T03:09:06Z</time>
</trkpt>
<trkpt lat="25.15886" lon="121.618657">
<ele>362.7</ele>
<time>2024-09-08T03:09:27Z</time>
</trkpt>
<trkpt lat="25.15892" lon="121.618805">
<ele>364.8</ele>
<time>2024-09-08T03:09:48Z</time>
</trkpt>
<trkpt lat="25.158884" lon="121.618841">
<ele>364</ele>
<time>2024-09-08T03:10:09Z</time>
</trkpt>
<trkpt lat="25.158825" lon="121.618772">
<ele>360.4</ele>
<time>2024-09-08T03:10:43Z</time>
</trkpt>
<trkpt lat="25.158936" lon="121.618788">
<ele>359.5</ele>
<time>2024-09-08T03:11:03Z</time>
</trkpt>
<trkpt lat="25.15889" lon="121.618715">
<ele>363.7</ele>
<time>2024-09-08T03:11:44Z</time>
</trkpt>
<trkpt lat="25.158941" lon="121.618714">
<ele>365.1</ele>
<time>2024-09-08T03:12:05Z</time>
</trkpt>
<trkpt lat="25.158974" lon="121.618778">
<ele>363.1</ele>
<time>2024-09-08T03:12:26Z</time>
</trkpt>
<trkpt lat="25.158931" lon="121.618715">
<ele>364.3</ele>
<time>2024-09-08T03:12:47Z</time>
</trkpt>
<trkpt lat="25.158919" lon="121.618657">
<ele>361.2</ele>
<time>2024-09-08T03:13:16Z</time>
</trkpt>
<trkpt lat="25.158959" lon="121.618708">
<ele>359.6</ele>
<time>2024-09-08T03:13:36Z</time>
</trkpt>
<trkpt lat="25.158914" lon="121.618648">
<ele>362.4</ele>
<time>2024-09-08T03:15:14Z</time>
</trkpt>
<trkpt lat="25.158903" lon="121.618795">
<ele>361.4</ele>
<time>2024-09-08T03:15:34Z</time>
</trkpt>
<trkpt lat="25.158986" lon="121.618744">
<ele>354.6</ele>
<time>2024-09-08T03:15:55Z</time>
</trkpt>
<trkpt lat="25.158997" lon="121.618648">
<ele>348.7</ele>
<time>2024-09-08T03:16:20Z</time>
</trkpt>
<trkpt lat="25.158969" lon="121.618715">
<ele>360.1</ele>
<time>2024-09-08T03:16:42Z</time>
</trkpt>
<trkpt lat="25.158892" lon="121.618725">
<ele>360.4</ele>
<time>2024-09-08T03:17:03Z</time>
</trkpt>
<trkpt lat="25.158937" lon="121.618681">
<ele>360.4</ele>
<time>2024-09-08T03:17:24Z</time>
</trkpt>
<trkpt lat="25.158986" lon="121.618661">
<ele>360.3</ele>
<time>2024-09-08T03:17:44Z</time>
</trkpt>
<trkpt lat="25.158945" lon="121.618701">
<ele>362.7</ele>
<time>2024-09-08T03:18:45Z</time>
</trkpt>
<trkpt lat="25.158879" lon="121.618697">
<ele>364.7</ele>
<time>2024-09-08T03:19:07Z</time>
</trkpt>
<trkpt lat="25.158947" lon="121.618738">
<ele>362.8</ele>
<time>2024-09-08T03:19:28Z</time>
</trkpt>
<trkpt lat="25.158969" lon="121.618692">
<ele>364.3</ele>
<time>2024-09-08T03:20:01Z</time>
</trkpt>
<trkpt lat="25.159011" lon="121.618662">
<ele>363.6</ele>
<time>2024-09-08T03:20:30Z</time>
</trkpt>
<trkpt lat="25.158939" lon="121.618552">
<ele>361.5</ele>
<time>2024-09-08T03:20:51Z</time>
</trkpt>
<trkpt lat="25.158857" lon="121.618619">
<ele>366</ele>
<time>2024-09-08T03:21:12Z</time>
</trkpt>
<trkpt lat="25.158902" lon="121.618612">
<ele>363.8</ele>
<time>2024-09-08T03:21:38Z</time>
</trkpt>
<trkpt lat="25.158935" lon="121.618654">
<ele>363.3</ele>
<time>2024-09-08T03:21:58Z</time>
</trkpt>
<trkpt lat="25.158874" lon="121.618638">
<ele>362</ele>
<time>2024-09-08T03:22:19Z</time>
</trkpt>
<trkpt lat="25.15889" lon="121.618699">
<ele>361</ele>
<time>2024-09-08T03:22:40Z</time>
</trkpt>
<trkpt lat="25.158948" lon="121.618577">
<ele>363.5</ele>
<time>2024-09-08T03:23:01Z</time>
</trkpt>
<trkpt lat="25.158919" lon="121.618529">
<ele>366.2</ele>
<time>2024-09-08T03:23:26Z</time>
</trkpt>
<trkpt lat="25.158932" lon="121.618467">
<ele>365.7</ele>
<time>2024-09-08T03:24:09Z</time>
</trkpt>
<trkpt lat="25.158929" lon="121.618407">
<ele>366.2</ele>
<time>2024-09-08T03:24:29Z</time>
</trkpt>
<trkpt lat="25.158877" lon="121.618384">
<ele>368</ele>
<time>2024-09-08T03:24:49Z</time>
</trkpt>
<trkpt lat="25.158932" lon="121.618261">
<ele>371.2</ele>
<time>2024-09-08T03:25:10Z</time>
</trkpt>
<trkpt lat="25.158948" lon="121.618172">
<ele>373.2</ele>
<time>2024-09-08T03:25:31Z</time>
</trkpt>
<trkpt lat="25.158894" lon="121.618128">
<ele>373.3</ele>
<time>2024-09-08T03:25:52Z</time>
</trkpt>
<trkpt lat="25.158852" lon="121.618099">
<ele>363.3</ele>
<time>2024-09-08T03:26:12Z</time>
</trkpt>
<trkpt lat="25.158838" lon="121.618037">
<ele>368.3</ele>
<time>2024-09-08T03:26:34Z</time>
</trkpt>
<trkpt lat="25.158778" lon="121.618111">
<ele>376.3</ele>
<time>2024-09-08T03:26:54Z</time>
</trkpt>
<trkpt lat="25.158739" lon="121.61801">
<ele>375.5</ele>
<time>2024-09-08T03:27:14Z</time>
</trkpt>
<trkpt lat="25.158776" lon="121.617931">
<ele>377.3</ele>
<time>2024-09-08T03:27:34Z</time>
</trkpt>
<trkpt lat="25.158718" lon="121.617928">
<ele>376.9</ele>
<time>2024-09-08T03:27:56Z</time>
</trkpt>
<trkpt lat="25.158813" lon="121.617886">
<ele>376.3</ele>
<time>2024-09-08T03:28:17Z</time>
</trkpt>
<trkpt lat="25.158758" lon="121.617876">
<ele>378.3</ele>
<time>2024-09-08T03:28:47Z</time>
</trkpt>
<trkpt lat="25.158812" lon="121.617818">
<ele>376.2</ele>
<time>2024-09-08T03:29:07Z</time>
</trkpt>
<trkpt lat="25.158846" lon="121.617778">
<ele>378.9</ele>
<time>2024-09-08T03:29:28Z</time>
</trkpt>
<trkpt lat="25.158852" lon="121.617721">
<ele>379.9</ele>
<time>2024-09-08T03:29:48Z</time>
</trkpt>
<trkpt lat="25.158822" lon="121.617765">
<ele>379.1</ele>
<time>2024-09-08T03:30:13Z</time>
</trkpt>
<trkpt lat="25.158844" lon="121.617721">
<ele>381.1</ele>
<time>2024-09-08T03:30:34Z</time>
</trkpt>
<trkpt lat="25.158746" lon="121.617706">
<ele>380.6</ele>
<time>2024-09-08T03:30:55Z</time>
</trkpt>
<trkpt lat="25.158852" lon="121.617752">
<ele>380.1</ele>
<time>2024-09-08T03:31:15Z</time>
</trkpt>
<trkpt lat="25.158776" lon="121.617821">
<ele>377.4</ele>
<time>2024-09-08T03:31:35Z</time>
</trkpt>
<trkpt lat="25.158789" lon="121.617767">
<ele>377.6</ele>
<time>2024-09-08T03:31:55Z</time>
</trkpt>
<trkpt lat="25.158743" lon="121.617743">
<ele>377.2</ele>
<time>2024-09-08T03:32:37Z</time>
</trkpt>
<trkpt lat="25.158831" lon="121.617728">
<ele>382.6</ele>
<time>2024-09-08T03:32:58Z</time>
</trkpt>
<trkpt lat="25.158788" lon="121.617767">
<ele>380.7</ele>
<time>2024-09-08T03:33:24Z</time>
</trkpt>
<trkpt lat="25.158764" lon="121.617811">
<ele>385.2</ele>
<time>2024-09-08T03:38:06Z</time>
</trkpt>
<trkpt lat="25.158734" lon="121.617768">
<ele>389.7</ele>
<time>2024-09-08T03:38:41Z</time>
</trkpt>
<trkpt lat="25.158716" lon="121.617816">
<ele>382.2</ele>
<time>2024-09-08T03:41:40Z</time>
</trkpt>
<trkpt lat="25.158765" lon="121.617833">
<ele>391</ele>
<time>2024-09-08T03:42:28Z</time>
</trkpt>
<trkpt lat="25.158818" lon="121.61781">
<ele>382</ele>
<time>2024-09-08T03:43:08Z</time>
</trkpt>
<trkpt lat="25.158785" lon="121.617774">
<ele>372.1</ele>
<time>2024-09-08T03:43:29Z</time>
</trkpt>
<trkpt lat="25.158766" lon="121.617822">
<ele>382</ele>
<time>2024-09-08T03:44:38Z</time>
</trkpt>
<trkpt lat="25.158761" lon="121.617733">
<ele>382.1</ele>
<time>2024-09-08T03:46:51Z</time>
</trkpt>
<trkpt lat="25.158744" lon="121.617788">
<ele>381</ele>
<time>2024-09-08T03:48:35Z</time>
</trkpt>
<trkpt lat="25.158759" lon="121.617731">
<ele>381.5</ele>
<time>2024-09-08T03:49:42Z</time>
</trkpt>
<trkpt lat="25.158773" lon="121.617783">
<ele>382.4</ele>
<time>2024-09-08T03:50:09Z</time>
</trkpt>
<trkpt lat="25.15878" lon="121.617729">
<ele>383.7</ele>
<time>2024-09-08T03:51:00Z</time>
</trkpt>
<trkpt lat="25.158757" lon="121.617799">
<ele>384</ele>
<time>2024-09-08T03:52:24Z</time>
</trkpt>
<trkpt lat="25.158769" lon="121.61775">
<ele>380.8</ele>
<time>2024-09-08T03:53:13Z</time>
</trkpt>
<trkpt lat="25.158741" lon="121.617805">
<ele>383.6</ele>
<time>2024-09-08T03:55:51Z</time>
</trkpt>
<trkpt lat="25.158729" lon="121.617755">
<ele>383.1</ele>
<time>2024-09-08T03:57:00Z</time>
</trkpt>
<trkpt lat="25.158774" lon="121.617731">
<ele>382.6</ele>
<time>2024-09-08T03:58:01Z</time>
</trkpt>
<trkpt lat="25.158787" lon="121.61779">
<ele>383</ele>
<time>2024-09-08T03:58:22Z</time>
</trkpt>
<trkpt lat="25.158746" lon="121.617813">
<ele>380.7</ele>
<time>2024-09-08T04:00:00Z</time>
</trkpt>
<trkpt lat="25.1587" lon="121.617807">
<ele>383</ele>
<time>2024-09-08T04:00:51Z</time>
</trkpt>
<trkpt lat="25.158697" lon="121.617724">
<ele>382.9</ele>
<time>2024-09-08T04:01:35Z</time>
</trkpt>
<trkpt lat="25.158729" lon="121.617788">
<ele>382.6</ele>
<time>2024-09-08T04:01:55Z</time>
</trkpt>
<trkpt lat="25.158762" lon="121.617742">
<ele>384.3</ele>
<time>2024-09-08T04:02:16Z</time>
</trkpt>
<trkpt lat="25.15883" lon="121.617783">
<ele>381.2</ele>
<time>2024-09-08T04:02:37Z</time>
</trkpt>
<trkpt lat="25.158767" lon="121.617746">
<ele>382.2</ele>
<time>2024-09-08T04:03:07Z</time>
</trkpt>
<trkpt lat="25.158708" lon="121.617757">
<ele>384.4</ele>
<time>2024-09-08T04:04:08Z</time>
</trkpt>
<trkpt lat="25.158769" lon="121.617781">
<ele>383.1</ele>
<time>2024-09-08T04:05:19Z</time>
</trkpt>
<trkpt lat="25.158742" lon="121.61774">
<ele>383.1</ele>
<time>2024-09-08T04:06:00Z</time>
</trkpt>
<trkpt lat="25.158767" lon="121.617801">
<ele>382.8</ele>
<time>2024-09-08T04:07:22Z</time>
</trkpt>
<trkpt lat="25.158825" lon="121.617736">
<ele>380.5</ele>
<time>2024-09-08T04:09:13Z</time>
</trkpt>
<trkpt lat="25.158804" lon="121.617787">
<ele>381.7</ele>
<time>2024-09-08T04:10:01Z</time>
</trkpt>
<trkpt lat="25.158757" lon="121.617756">
<ele>381</ele>
<time>2024-09-08T04:11:44Z</time>
</trkpt>
<trkpt lat="25.158708" lon="121.617823">
<ele>380.9</ele>
<time>2024-09-08T04:12:16Z</time>
</trkpt>
<trkpt lat="25.158723" lon="121.617745">
<ele>380.2</ele>
<time>2024-09-08T04:13:54Z</time>
</trkpt>
<trkpt lat="25.158785" lon="121.617725">
<ele>383.2</ele>
<time>2024-09-08T04:14:41Z</time>
</trkpt>
<trkpt lat="25.158727" lon="121.617725">
<ele>366.8</ele>
<time>2024-09-08T04:15:59Z</time>
</trkpt>
<trkpt lat="25.158763" lon="121.617797">
<ele>382.7</ele>
<time>2024-09-08T04:16:20Z</time>
</trkpt>
<trkpt lat="25.158748" lon="121.61771">
<ele>381.3</ele>
<time>2024-09-08T04:17:44Z</time>
</trkpt>
<trkpt lat="25.158796" lon="121.617765">
<ele>380.8</ele>
<time>2024-09-08T04:19:31Z</time>
</trkpt>
<trkpt lat="25.158732" lon="121.617783">
<ele>381.7</ele>
<time>2024-09-08T04:22:05Z</time>
</trkpt>
<trkpt lat="25.158779" lon="121.617764">
<ele>382</ele>
<time>2024-09-08T04:23:00Z</time>
</trkpt>
<trkpt lat="25.158753" lon="121.617717">
<ele>380.6</ele>
<time>2024-09-08T04:23:24Z</time>
</trkpt>
<trkpt lat="25.158784" lon="121.61777">
<ele>385.6</ele>
<time>2024-09-08T04:24:46Z</time>
</trkpt>
<trkpt lat="25.158761" lon="121.61785">
<ele>383.2</ele>
<time>2024-09-08T04:25:08Z</time>
</trkpt>
<trkpt lat="25.158802" lon="121.617803">
<ele>381.7</ele>
<time>2024-09-08T04:25:29Z</time>
</trkpt>
<trkpt lat="25.158841" lon="121.617761">
<ele>380.7</ele>
<time>2024-09-08T04:27:23Z</time>
</trkpt>
<trkpt lat="25.158809" lon="121.617724">
<ele>383.8</ele>
<time>2024-09-08T04:27:49Z</time>
</trkpt>
<trkpt lat="25.158769" lon="121.617857">
<ele>383.9</ele>
<time>2024-09-08T04:28:54Z</time>
</trkpt>
<trkpt lat="25.158771" lon="121.617769">
<ele>382.6</ele>
<time>2024-09-08T04:29:15Z</time>
</trkpt>
<trkpt lat="25.158746" lon="121.617703">
<ele>382.5</ele>
<time>2024-09-08T04:30:19Z</time>
</trkpt>
<trkpt lat="25.158799" lon="121.617726">
<ele>382.5</ele>
<time>2024-09-08T04:31:05Z</time>
</trkpt>
<trkpt lat="25.15873" lon="121.617663">
<ele>383.6</ele>
<time>2024-09-08T04:31:25Z</time>
</trkpt>
<trkpt lat="25.158686" lon="121.617719">
<ele>387.5</ele>
<time>2024-09-08T04:31:53Z</time>
</trkpt>
<trkpt lat="25.15872" lon="121.61768">
<ele>386.8</ele>
<time>2024-09-08T04:32:19Z</time>
</trkpt>
<trkpt lat="25.158796" lon="121.617704">
<ele>384.6</ele>
<time>2024-09-08T04:32:40Z</time>
</trkpt>
<trkpt lat="25.15875" lon="121.6177">
<ele>384.1</ele>
<time>2024-09-08T04:33:01Z</time>
</trkpt>
<trkpt lat="25.158746" lon="121.617648">
<ele>385.1</ele>
<time>2024-09-08T04:33:37Z</time>
</trkpt>
<trkpt lat="25.158774" lon="121.617699">
<ele>386</ele>
<time>2024-09-08T04:33:58Z</time>
</trkpt>
<trkpt lat="25.158793" lon="121.617757">
<ele>384.1</ele>
<time>2024-09-08T04:34:19Z</time>
</trkpt>
<trkpt lat="25.158808" lon="121.617696">
<ele>373.6</ele>
<time>2024-09-08T04:38:29Z</time>
</trkpt>
<trkpt lat="25.158856" lon="121.617694">
<ele>386.8</ele>
<time>2024-09-08T04:39:37Z</time>
</trkpt>
<trkpt lat="25.158794" lon="121.617726">
<ele>380.5</ele>
<time>2024-09-08T04:41:27Z</time>
</trkpt>
<trkpt lat="25.158841" lon="121.617745">
<ele>382.4</ele>
<time>2024-09-08T04:44:56Z</time>
</trkpt>
<trkpt lat="25.158802" lon="121.617796">
<ele>383.4</ele>
<time>2024-09-08T04:45:17Z</time>
</trkpt>
<trkpt lat="25.158819" lon="121.617747">
<ele>383.7</ele>
<time>2024-09-08T04:46:04Z</time>
</trkpt>
<trkpt lat="25.15878" lon="121.617773">
<ele>385.3</ele>
<time>2024-09-08T04:47:02Z</time>
</trkpt>
<trkpt lat="25.15877" lon="121.617894">
<ele>383.4</ele>
<time>2024-09-08T04:47:23Z</time>
</trkpt>
<trkpt lat="25.158721" lon="121.617904">
<ele>373.2</ele>
<time>2024-09-08T04:47:52Z</time>
</trkpt>
<trkpt lat="25.158755" lon="121.617985">
<ele>377.6</ele>
<time>2024-09-08T04:48:13Z</time>
</trkpt>
<trkpt lat="25.158762" lon="121.618124">
<ele>377.3</ele>
<time>2024-09-08T04:48:34Z</time>
</trkpt>
<trkpt lat="25.158886" lon="121.61808">
<ele>373.7</ele>
<time>2024-09-08T04:48:55Z</time>
</trkpt>
<trkpt lat="25.158866" lon="121.618185">
<ele>375.6</ele>
<time>2024-09-08T04:49:16Z</time>
</trkpt>
<trkpt lat="25.158901" lon="121.618288">
<ele>371.3</ele>
<time>2024-09-08T04:49:37Z</time>
</trkpt>
<trkpt lat="25.158879" lon="121.618449">
<ele>370.3</ele>
<time>2024-09-08T04:49:57Z</time>
</trkpt>
<trkpt lat="25.158932" lon="121.618537">
<ele>367.5</ele>
<time>2024-09-08T04:50:18Z</time>
</trkpt>
<trkpt lat="25.158959" lon="121.618577">
<ele>365.8</ele>
<time>2024-09-08T04:52:08Z</time>
</trkpt>
<trkpt lat="25.15901" lon="121.618583">
<ele>364.8</ele>
<time>2024-09-08T04:52:44Z</time>
</trkpt>
<trkpt lat="25.158956" lon="121.618584">
<ele>370.3</ele>
<time>2024-09-08T04:53:38Z</time>
</trkpt>
<trkpt lat="25.159006" lon="121.618565">
<ele>369</ele>
<time>2024-09-08T04:54:40Z</time>
</trkpt>
<trkpt lat="25.15897" lon="121.618606">
<ele>371.6</ele>
<time>2024-09-08T04:55:01Z</time>
</trkpt>
<trkpt lat="25.159022" lon="121.618526">
<ele>361.4</ele>
<time>2024-09-08T04:56:27Z</time>
</trkpt>
<trkpt lat="25.158987" lon="121.618597">
<ele>362.6</ele>
<time>2024-09-08T04:56:48Z</time>
</trkpt>
<trkpt lat="25.159076" lon="121.618585">
<ele>366.3</ele>
<time>2024-09-08T04:57:44Z</time>
</trkpt>
<trkpt lat="25.15897" lon="121.618521">
<ele>369.9</ele>
<time>2024-09-08T04:58:05Z</time>
</trkpt>
<trkpt lat="25.158972" lon="121.618577">
<ele>367</ele>
<time>2024-09-08T04:58:29Z</time>
</trkpt>
<trkpt lat="25.15901" lon="121.618621">
<ele>367.9</ele>
<time>2024-09-08T04:58:50Z</time>
</trkpt>
<trkpt lat="25.15896" lon="121.618635">
<ele>370.9</ele>
<time>2024-09-08T04:59:40Z</time>
</trkpt>
<trkpt lat="25.158981" lon="121.618586">
<ele>364.8</ele>
<time>2024-09-08T05:00:07Z</time>
</trkpt>
<trkpt lat="25.158866" lon="121.618708">
<ele>372.6</ele>
<time>2024-09-08T05:01:04Z</time>
</trkpt>
<trkpt lat="25.15894" lon="121.618594">
<ele>364.4</ele>
<time>2024-09-08T05:01:25Z</time>
</trkpt>
<trkpt lat="25.159002" lon="121.618598">
<ele>364.9</ele>
<time>2024-09-08T05:01:46Z</time>
</trkpt>
<trkpt lat="25.158949" lon="121.618594">
<ele>366.7</ele>
<time>2024-09-08T05:02:25Z</time>
</trkpt>
<trkpt lat="25.159042" lon="121.618632">
<ele>368</ele>
<time>2024-09-08T05:02:45Z</time>
</trkpt>
<trkpt lat="25.15906" lon="121.618582">
<ele>368.7</ele>
<time>2024-09-08T05:04:29Z</time>
</trkpt>
<trkpt lat="25.159025" lon="121.618647">
<ele>371</ele>
<time>2024-09-08T05:05:09Z</time>
</trkpt>
<trkpt lat="25.158954" lon="121.618547">
<ele>369.6</ele>
<time>2024-09-08T05:05:30Z</time>
</trkpt>
<trkpt lat="25.15897" lon="121.618498">
<ele>364.7</ele>
<time>2024-09-08T05:06:09Z</time>
</trkpt>
<trkpt lat="25.159018" lon="121.61852">
<ele>362</ele>
<time>2024-09-08T05:06:32Z</time>
</trkpt>
<trkpt lat="25.158968" lon="121.618535">
<ele>361.9</ele>
<time>2024-09-08T05:06:52Z</time>
</trkpt>
<trkpt lat="25.158906" lon="121.618564">
<ele>368.7</ele>
<time>2024-09-08T05:07:46Z</time>
</trkpt>
<trkpt lat="25.158958" lon="121.618598">
<ele>366.1</ele>
<time>2024-09-08T05:08:25Z</time>
</trkpt>
<trkpt lat="25.158982" lon="121.618509">
<ele>365.7</ele>
<time>2024-09-08T05:08:55Z</time>
</trkpt>
<trkpt lat="25.158934" lon="121.618506">
<ele>363</ele>
<time>2024-09-08T05:09:18Z</time>
</trkpt>
<trkpt lat="25.158942" lon="121.618576">
<ele>363.8</ele>
<time>2024-09-08T05:09:39Z</time>
</trkpt>
<trkpt lat="25.158989" lon="121.618597">
<ele>368.3</ele>
<time>2024-09-08T05:10:02Z</time>
</trkpt>
<trkpt lat="25.158998" lon="121.618695">
<ele>362.4</ele>
<time>2024-09-08T05:10:23Z</time>
</trkpt>
<trkpt lat="25.158952" lon="121.618607">
<ele>362.5</ele>
<time>2024-09-08T05:10:44Z</time>
</trkpt>
<trkpt lat="25.159099" lon="121.618565">
<ele>362.8</ele>
<time>2024-09-08T05:11:04Z</time>
</trkpt>
<trkpt lat="25.159044" lon="121.618651">
<ele>377.9</ele>
<time>2024-09-08T05:12:56Z</time>
</trkpt>
<trkpt lat="25.159074" lon="121.618605">
<ele>370.2</ele>
<time>2024-09-08T05:13:16Z</time>
</trkpt>
<trkpt lat="25.15902" lon="121.618599">
<ele>368.5</ele>
<time>2024-09-08T05:13:37Z</time>
</trkpt>
<trkpt lat="25.158996" lon="121.618544">
<ele>367.4</ele>
<time>2024-09-08T05:14:03Z</time>
</trkpt>
<trkpt lat="25.159058" lon="121.618559">
<ele>370.7</ele>
<time>2024-09-08T05:14:27Z</time>
</trkpt>
<trkpt lat="25.158985" lon="121.618515">
<ele>369.5</ele>
<time>2024-09-08T05:14:48Z</time>
</trkpt>
<trkpt lat="25.158941" lon="121.61849">
<ele>376.5</ele>
<time>2024-09-08T05:15:09Z</time>
</trkpt>
<trkpt lat="25.159" lon="121.618509">
<ele>374.2</ele>
<time>2024-09-08T05:15:30Z</time>
</trkpt>
<trkpt lat="25.159023" lon="121.618556">
<ele>367.8</ele>
<time>2024-09-08T05:15:52Z</time>
</trkpt>
<trkpt lat="25.15897" lon="121.618648">
<ele>365.6</ele>
<time>2024-09-08T05:16:13Z</time>
</trkpt>
<trkpt lat="25.158999" lon="121.618703">
<ele>365.2</ele>
<time>2024-09-08T05:16:38Z</time>
</trkpt>
<trkpt lat="25.159081" lon="121.618665">
<ele>365</ele>
<time>2024-09-08T05:16:59Z</time>
</trkpt>
<trkpt lat="25.159078" lon="121.618615">
<ele>367.3</ele>
<time>2024-09-08T05:17:21Z</time>
</trkpt>
<trkpt lat="25.159053" lon="121.618656">
<ele>367.9</ele>
<time>2024-09-08T05:18:06Z</time>
</trkpt>
<trkpt lat="25.159145" lon="121.618582">
<ele>366.7</ele>
<time>2024-09-08T05:18:27Z</time>
</trkpt>
<trkpt lat="25.159053" lon="121.618642">
<ele>363.4</ele>
<time>2024-09-08T05:18:48Z</time>
</trkpt>
<trkpt lat="25.159089" lon="121.618597">
<ele>361.8</ele>
<time>2024-09-08T05:19:14Z</time>
</trkpt>
<trkpt lat="25.159027" lon="121.618636">
<ele>366.9</ele>
<time>2024-09-08T05:20:16Z</time>
</trkpt>
<trkpt lat="25.159037" lon="121.618685">
<ele>369.8</ele>
<time>2024-09-08T05:21:00Z</time>
</trkpt>
<trkpt lat="25.158974" lon="121.618698">
<ele>366.1</ele>
<time>2024-09-08T05:21:21Z</time>
</trkpt>
<trkpt lat="25.159028" lon="121.61864">
<ele>367.7</ele>
<time>2024-09-08T05:21:41Z</time>
</trkpt>
<trkpt lat="25.159049" lon="121.618786">
<ele>379.3</ele>
<time>2024-09-08T05:22:25Z</time>
</trkpt>
<trkpt lat="25.159028" lon="121.618719">
<ele>377.1</ele>
<time>2024-09-08T05:22:46Z</time>
</trkpt>
<trkpt lat="25.158994" lon="121.618757">
<ele>371.9</ele>
<time>2024-09-08T05:23:15Z</time>
</trkpt>
<trkpt lat="25.159044" lon="121.618672">
<ele>371.8</ele>
<time>2024-09-08T05:23:35Z</time>
</trkpt>
<trkpt lat="25.159021" lon="121.61872">
<ele>371.4</ele>
<time>2024-09-08T05:24:06Z</time>
</trkpt>
<trkpt lat="25.159075" lon="121.618731">
<ele>370.3</ele>
<time>2024-09-08T05:24:30Z</time>
</trkpt>
<trkpt lat="25.159031" lon="121.618673">
<ele>370.6</ele>
<time>2024-09-08T05:24:51Z</time>
</trkpt>
<trkpt lat="25.159057" lon="121.618615">
<ele>368.4</ele>
<time>2024-09-08T05:25:35Z</time>
</trkpt>
<trkpt lat="25.159036" lon="121.618668">
<ele>368.7</ele>
<time>2024-09-08T05:27:15Z</time>
</trkpt>
<trkpt lat="25.159038" lon="121.618723">
<ele>370.8</ele>
<time>2024-09-08T05:27:47Z</time>
</trkpt>
<trkpt lat="25.159026" lon="121.618669">
<ele>369.7</ele>
<time>2024-09-08T05:28:13Z</time>
</trkpt>
<trkpt lat="25.159099" lon="121.618604">
<ele>369.4</ele>
<time>2024-09-08T05:29:28Z</time>
</trkpt>
<trkpt lat="25.159054" lon="121.618618">
<ele>367.8</ele>
<time>2024-09-08T05:29:49Z</time>
</trkpt>
<trkpt lat="25.15908" lon="121.61857">
<ele>366.2</ele>
<time>2024-09-08T05:30:12Z</time>
</trkpt>
<trkpt lat="25.158999" lon="121.618666">
<ele>366.2</ele>
<time>2024-09-08T05:30:33Z</time>
</trkpt>
<trkpt lat="25.15906" lon="121.618633">
<ele>366.9</ele>
<time>2024-09-08T05:30:54Z</time>
</trkpt>
<trkpt lat="25.159114" lon="121.618606">
<ele>368.7</ele>
<time>2024-09-08T05:31:15Z</time>
</trkpt>
<trkpt lat="25.159024" lon="121.618647">
<ele>375</ele>
<time>2024-09-08T05:31:36Z</time>
</trkpt>
<trkpt lat="25.159055" lon="121.618737">
<ele>378.2</ele>
<time>2024-09-08T05:31:56Z</time>
</trkpt>
<trkpt lat="25.159007" lon="121.618693">
<ele>375.1</ele>
<time>2024-09-08T05:32:17Z</time>
</trkpt>
<trkpt lat="25.159084" lon="121.618633">
<ele>370.3</ele>
<time>2024-09-08T05:32:38Z</time>
</trkpt>
<trkpt lat="25.159052" lon="121.618598">
<ele>371.1</ele>
<time>2024-09-08T05:33:02Z</time>
</trkpt>
<trkpt lat="25.1591" lon="121.618554">
<ele>372</ele>
<time>2024-09-08T05:33:35Z</time>
</trkpt>
<trkpt lat="25.159018" lon="121.618632">
<ele>372</ele>
<time>2024-09-08T05:33:56Z</time>
</trkpt>
<trkpt lat="25.159055" lon="121.618596">
<ele>374.8</ele>
<time>2024-09-08T05:34:16Z</time>
</trkpt>
<trkpt lat="25.159038" lon="121.618649">
<ele>370</ele>
<time>2024-09-08T05:34:41Z</time>
</trkpt>
<trkpt lat="25.159049" lon="121.618543">
<ele>371.2</ele>
<time>2024-09-08T05:35:02Z</time>
</trkpt>
<trkpt lat="25.159022" lon="121.618606">
<ele>365.9</ele>
<time>2024-09-08T05:35:23Z</time>
</trkpt>
<trkpt lat="25.159044" lon="121.618519">
<ele>367.5</ele>
<time>2024-09-08T05:35:49Z</time>
</trkpt>
<trkpt lat="25.158996" lon="121.618506">
<ele>365.4</ele>
<time>2024-09-08T05:36:12Z</time>
</trkpt>
<trkpt lat="25.159009" lon="121.618584">
<ele>366.3</ele>
<time>2024-09-08T05:36:33Z</time>
</trkpt>
<trkpt lat="25.159046" lon="121.618555">
<ele>375.1</ele>
<time>2024-09-08T05:37:07Z</time>
</trkpt>
<trkpt lat="25.15914" lon="121.618472">
<ele>374.7</ele>
<time>2024-09-08T05:37:38Z</time>
</trkpt>
<trkpt lat="25.15904" lon="121.618539">
<ele>383.7</ele>
<time>2024-09-08T05:37:59Z</time>
</trkpt>
<trkpt lat="25.159039" lon="121.618589">
<ele>380.4</ele>
<time>2024-09-08T05:38:28Z</time>
</trkpt>
<trkpt lat="25.159008" lon="121.618632">
<ele>377.7</ele>
<time>2024-09-08T05:38:51Z</time>
</trkpt>
<trkpt lat="25.159082" lon="121.6187">
<ele>371.5</ele>
<time>2024-09-08T05:39:12Z</time>
</trkpt>
<trkpt lat="25.159082" lon="121.618622">
<ele>371.4</ele>
<time>2024-09-08T05:39:33Z</time>
</trkpt>
<trkpt lat="25.159042" lon="121.618645">
<ele>372.4</ele>
<time>2024-09-08T05:39:55Z</time>
</trkpt>
<trkpt lat="25.159063" lon="121.618691">
<ele>369.4</ele>
<time>2024-09-08T05:40:16Z</time>
</trkpt>
<trkpt lat="25.159139" lon="121.618675">
<ele>369</ele>
<time>2024-09-08T05:40:40Z</time>
</trkpt>
<trkpt lat="25.158994" lon="121.618778">
<ele>369.6</ele>
<time>2024-09-08T05:41:01Z</time>
</trkpt>
<trkpt lat="25.158985" lon="121.618611">
<ele>373.4</ele>
<time>2024-09-08T05:41:24Z</time>
</trkpt>
<trkpt lat="25.15901" lon="121.618742">
<ele>366.7</ele>
<time>2024-09-08T05:41:46Z</time>
</trkpt>
<trkpt lat="25.158895" lon="121.618895">
<ele>360.9</ele>
<time>2024-09-08T05:42:07Z</time>
</trkpt>
<trkpt lat="25.158855" lon="121.618749">
<ele>339.6</ele>
<time>2024-09-08T05:44:46Z</time>
</trkpt>
<trkpt lat="25.158936" lon="121.618779">
<ele>362.8</ele>
<time>2024-09-08T05:45:07Z</time>
</trkpt>
<trkpt lat="25.159" lon="121.61879">
<ele>369.9</ele>
<time>2024-09-08T05:45:27Z</time>
</trkpt>
<trkpt lat="25.159016" lon="121.618738">
<ele>366.8</ele>
<time>2024-09-08T05:45:47Z</time>
</trkpt>
<trkpt lat="25.158988" lon="121.618835">
<ele>359.7</ele>
<time>2024-09-08T05:46:08Z</time>
</trkpt>
<trkpt lat="25.158955" lon="121.618781">
<ele>351.5</ele>
<time>2024-09-08T05:46:28Z</time>
</trkpt>
<trkpt lat="25.158904" lon="121.618841">
<ele>364.2</ele>
<time>2024-09-08T05:47:29Z</time>
</trkpt>
<trkpt lat="25.158926" lon="121.618777">
<ele>359.4</ele>
<time>2024-09-08T05:48:02Z</time>
</trkpt>
<trkpt lat="25.158994" lon="121.618732">
<ele>361.8</ele>
<time>2024-09-08T05:48:22Z</time>
</trkpt>
<trkpt lat="25.158945" lon="121.618735">
<ele>364.7</ele>
<time>2024-09-08T05:48:49Z</time>
</trkpt>
<trkpt lat="25.159" lon="121.618839">
<ele>362.7</ele>
<time>2024-09-08T05:49:09Z</time>
</trkpt>
<trkpt lat="25.158967" lon="121.618758">
<ele>363.2</ele>
<time>2024-09-08T05:49:30Z</time>
</trkpt>
<trkpt lat="25.158914" lon="121.618702">
<ele>363.5</ele>
<time>2024-09-08T05:49:51Z</time>
</trkpt>
<trkpt lat="25.158943" lon="121.618817">
<ele>366.3</ele>
<time>2024-09-08T05:50:11Z</time>
</trkpt>
<trkpt lat="25.158883" lon="121.61899">
<ele>366.3</ele>
<time>2024-09-08T05:50:50Z</time>
</trkpt>
<trkpt lat="25.158968" lon="121.618856">
<ele>368.2</ele>
<time>2024-09-08T05:51:10Z</time>
</trkpt>
<trkpt lat="25.159073" lon="121.618799">
<ele>362.6</ele>
<time>2024-09-08T05:51:31Z</time>
</trkpt>
<trkpt lat="25.159035" lon="121.618762">
<ele>355.9</ele>
<time>2024-09-08T05:51:52Z</time>
</trkpt>
<trkpt lat="25.159041" lon="121.618703">
<ele>352.6</ele>
<time>2024-09-08T05:52:14Z</time>
</trkpt>
<trkpt lat="25.158945" lon="121.618716">
<ele>359.2</ele>
<time>2024-09-08T05:52:34Z</time>
</trkpt>
<trkpt lat="25.158975" lon="121.618845">
<ele>359.6</ele>
<time>2024-09-08T05:52:54Z</time>
</trkpt>
<trkpt lat="25.159011" lon="121.618771">
<ele>363.5</ele>
<time>2024-09-08T05:53:14Z</time>
</trkpt>
<trkpt lat="25.15897" lon="121.618813">
<ele>359.5</ele>
<time>2024-09-08T05:53:35Z</time>
</trkpt>
<trkpt lat="25.158977" lon="121.618864">
<ele>363.2</ele>
<time>2024-09-08T05:54:04Z</time>
</trkpt>
<trkpt lat="25.158988" lon="121.618805">
<ele>361.7</ele>
<time>2024-09-08T05:54:25Z</time>
</trkpt>
<trkpt lat="25.158937" lon="121.618851">
<ele>364.8</ele>
<time>2024-09-08T05:54:46Z</time>
</trkpt>
<trkpt lat="25.158996" lon="121.618796">
<ele>363.4</ele>
<time>2024-09-08T05:55:06Z</time>
</trkpt>
<trkpt lat="25.158945" lon="121.61879">
<ele>363.3</ele>
<time>2024-09-08T05:55:31Z</time>
</trkpt>
<trkpt lat="25.159016" lon="121.618812">
<ele>382.3</ele>
<time>2024-09-08T05:55:52Z</time>
</trkpt>
<trkpt lat="25.158924" lon="121.618711">
<ele>360.7</ele>
<time>2024-09-08T05:56:13Z</time>
</trkpt>
<trkpt lat="25.15887" lon="121.618717">
<ele>362.1</ele>
<time>2024-09-08T05:56:37Z</time>
</trkpt>
<trkpt lat="25.158953" lon="121.61876">
<ele>360.1</ele>
<time>2024-09-08T05:56:58Z</time>
</trkpt>
<trkpt lat="25.158918" lon="121.618652">
<ele>362.5</ele>
<time>2024-09-08T05:57:19Z</time>
</trkpt>
<trkpt lat="25.158943" lon="121.618609">
<ele>363.4</ele>
<time>2024-09-08T05:57:44Z</time>
</trkpt>
<trkpt lat="25.158991" lon="121.61863">
<ele>363.4</ele>
<time>2024-09-08T05:58:07Z</time>
</trkpt>
<trkpt lat="25.158921" lon="121.618635">
<ele>368.3</ele>
<time>2024-09-08T05:58:30Z</time>
</trkpt>
<trkpt lat="25.158962" lon="121.618707">
<ele>363.9</ele>
<time>2024-09-08T05:58:51Z</time>
</trkpt>
<trkpt lat="25.158896" lon="121.618755">
<ele>363.5</ele>
<time>2024-09-08T05:59:12Z</time>
</trkpt>
<trkpt lat="25.159012" lon="121.618651">
<ele>366.3</ele>
<time>2024-09-08T05:59:33Z</time>
</trkpt>
<trkpt lat="25.158956" lon="121.618735">
<ele>370.2</ele>
<time>2024-09-08T05:59:53Z</time>
</trkpt>
<trkpt lat="25.159053" lon="121.618683">
<ele>370.3</ele>
<time>2024-09-08T06:00:14Z</time>
</trkpt>
<trkpt lat="25.159086" lon="121.618738">
<ele>368.1</ele>
<time>2024-09-08T06:00:38Z</time>
</trkpt>
<trkpt lat="25.159041" lon="121.618799">
<ele>371.3</ele>
<time>2024-09-08T06:00:59Z</time>
</trkpt>
<trkpt lat="25.159098" lon="121.618714">
<ele>368.5</ele>
<time>2024-09-08T06:01:27Z</time>
</trkpt>
<trkpt lat="25.159053" lon="121.618711">
<ele>370.6</ele>
<time>2024-09-08T06:01:59Z</time>
</trkpt>
<trkpt lat="25.159063" lon="121.618636">
<ele>361.9</ele>
<time>2024-09-08T06:02:20Z</time>
</trkpt>
<trkpt lat="25.159069" lon="121.618721">
<ele>370.4</ele>
<time>2024-09-08T06:02:41Z</time>
</trkpt>
<trkpt lat="25.15906" lon="121.618637">
<ele>372.4</ele>
<time>2024-09-08T06:03:02Z</time>
</trkpt>
<trkpt lat="25.159057" lon="121.618691">
<ele>371</ele>
<time>2024-09-08T06:03:24Z</time>
</trkpt>
<trkpt lat="25.159017" lon="121.618661">
<ele>369.7</ele>
<time>2024-09-08T06:03:46Z</time>
</trkpt>
<trkpt lat="25.159061" lon="121.618694">
<ele>372.6</ele>
<time>2024-09-08T06:04:06Z</time>
</trkpt>
<trkpt lat="25.158994" lon="121.618709">
<ele>381.4</ele>
<time>2024-09-08T06:04:27Z</time>
</trkpt>
<trkpt lat="25.158962" lon="121.618666">
<ele>372.4</ele>
<time>2024-09-08T06:04:48Z</time>
</trkpt>
<trkpt lat="25.159005" lon="121.618705">
<ele>367</ele>
<time>2024-09-08T06:05:09Z</time>
</trkpt>
<trkpt lat="25.158911" lon="121.618794">
<ele>365.5</ele>
<time>2024-09-08T06:05:45Z</time>
</trkpt>
<trkpt lat="25.15894" lon="121.618751">
<ele>361</ele>
<time>2024-09-08T06:06:31Z</time>
</trkpt>
<trkpt lat="25.159001" lon="121.618718">
<ele>362.3</ele>
<time>2024-09-08T06:07:20Z</time>
</trkpt>
<trkpt lat="25.159041" lon="121.618759">
<ele>364.7</ele>
<time>2024-09-08T06:07:46Z</time>
</trkpt>
<trkpt lat="25.15903" lon="121.618661">
<ele>351.1</ele>
<time>2024-09-08T06:08:47Z</time>
</trkpt>
<trkpt lat="25.158988" lon="121.618756">
<ele>361.7</ele>
<time>2024-09-08T06:09:37Z</time>
</trkpt>
<trkpt lat="25.158928" lon="121.618696">
<ele>360.8</ele>
<time>2024-09-08T06:11:20Z</time>
</trkpt>
<trkpt lat="25.159016" lon="121.618633">
<ele>361.3</ele>
<time>2024-09-08T06:11:41Z</time>
</trkpt>
<trkpt lat="25.159093" lon="121.618618">
<ele>365.9</ele>
<time>2024-09-08T06:12:03Z</time>
</trkpt>
<trkpt lat="25.159006" lon="121.618671">
<ele>366.2</ele>
<time>2024-09-08T06:12:23Z</time>
</trkpt>
<trkpt lat="25.158932" lon="121.61864">
<ele>350.8</ele>
<time>2024-09-08T06:13:52Z</time>
</trkpt>
<trkpt lat="25.159025" lon="121.618613">
<ele>346.9</ele>
<time>2024-09-08T06:14:13Z</time>
</trkpt>
<trkpt lat="25.15907" lon="121.618618">
<ele>345.9</ele>
<time>2024-09-08T06:14:43Z</time>
</trkpt>
<trkpt lat="25.159053" lon="121.618666">
<ele>353.9</ele>
<time>2024-09-08T06:15:10Z</time>
</trkpt>
<trkpt lat="25.158994" lon="121.618656">
<ele>369.5</ele>
<time>2024-09-08T06:15:56Z</time>
</trkpt>
<trkpt lat="25.159055" lon="121.618652">
<ele>369</ele>
<time>2024-09-08T06:16:17Z</time>
</trkpt>
<trkpt lat="25.158949" lon="121.618619">
<ele>372.7</ele>
<time>2024-09-08T06:16:37Z</time>
</trkpt>
<trkpt lat="25.158991" lon="121.618645">
<ele>365.1</ele>
<time>2024-09-08T06:16:59Z</time>
</trkpt>
<trkpt lat="25.159037" lon="121.618643">
<ele>370.6</ele>
<time>2024-09-08T06:17:36Z</time>
</trkpt>
<trkpt lat="25.158915" lon="121.618658">
<ele>369.4</ele>
<time>2024-09-08T06:17:57Z</time>
</trkpt>
<trkpt lat="25.159023" lon="121.618652">
<ele>360.3</ele>
<time>2024-09-08T06:18:18Z</time>
</trkpt>
<trkpt lat="25.158976" lon="121.618656">
<ele>360</ele>
<time>2024-09-08T06:18:42Z</time>
</trkpt>
<trkpt lat="25.159042" lon="121.618616">
<ele>350.7</ele>
<time>2024-09-08T06:20:02Z</time>
</trkpt>
<trkpt lat="25.159092" lon="121.618588">
<ele>349.4</ele>
<time>2024-09-08T06:20:35Z</time>
</trkpt>
<trkpt lat="25.159056" lon="121.618642">
<ele>349.3</ele>
<time>2024-09-08T06:20:55Z</time>
</trkpt>
<trkpt lat="25.159003" lon="121.618671">
<ele>354.5</ele>
<time>2024-09-08T06:21:16Z</time>
</trkpt>
<trkpt lat="25.158954" lon="121.61865">
<ele>353.9</ele>
<time>2024-09-08T06:21:38Z</time>
</trkpt>
<trkpt lat="25.159034" lon="121.61863">
<ele>359.2</ele>
<time>2024-09-08T06:22:48Z</time>
</trkpt>
<trkpt lat="25.159081" lon="121.618624">
<ele>356</ele>
<time>2024-09-08T06:24:41Z</time>
</trkpt>
<trkpt lat="25.159009" lon="121.618634">
<ele>356.2</ele>
<time>2024-09-08T06:25:01Z</time>
</trkpt>
<trkpt lat="25.159055" lon="121.618635">
<ele>354</ele>
<time>2024-09-08T06:25:44Z</time>
</trkpt>
<trkpt lat="25.158953" lon="121.618674">
<ele>352.6</ele>
<time>2024-09-08T06:26:05Z</time>
</trkpt>
<trkpt lat="25.158962" lon="121.618625">
<ele>361.2</ele>
<time>2024-09-08T06:26:46Z</time>
</trkpt>
<trkpt lat="25.159014" lon="121.618704">
<ele>359.8</ele>
<time>2024-09-08T06:27:10Z</time>
</trkpt>
<trkpt lat="25.158988" lon="121.618821">
<ele>369.3</ele>
<time>2024-09-08T06:27:47Z</time>
</trkpt>
<trkpt lat="25.158963" lon="121.618719">
<ele>373.6</ele>
<time>2024-09-08T06:28:08Z</time>
</trkpt>
<trkpt lat="25.158919" lon="121.618744">
<ele>368.7</ele>
<time>2024-09-08T06:28:52Z</time>
</trkpt>
<trkpt lat="25.159011" lon="121.618669">
<ele>361.8</ele>
<time>2024-09-08T06:29:12Z</time>
</trkpt>
<trkpt lat="25.158966" lon="121.618677">
<ele>359.7</ele>
<time>2024-09-08T06:29:49Z</time>
</trkpt>
<trkpt lat="25.159032" lon="121.618646">
<ele>355.5</ele>
<time>2024-09-08T06:30:10Z</time>
</trkpt>
<trkpt lat="25.158975" lon="121.618655">
<ele>359.9</ele>
<time>2024-09-08T06:30:38Z</time>
</trkpt>
<trkpt lat="25.159048" lon="121.618624">
<ele>354.2</ele>
<time>2024-09-08T06:30:59Z</time>
</trkpt>
<trkpt lat="25.159007" lon="121.618656">
<ele>355</ele>
<time>2024-09-08T06:31:34Z</time>
</trkpt>
<trkpt lat="25.158957" lon="121.618657">
<ele>356.1</ele>
<time>2024-09-08T06:31:56Z</time>
</trkpt>
<trkpt lat="25.159036" lon="121.618619">
<ele>361.8</ele>
<time>2024-09-08T06:32:17Z</time>
</trkpt>
<trkpt lat="25.158989" lon="121.618616">
<ele>360.3</ele>
<time>2024-09-08T06:32:54Z</time>
</trkpt>
<trkpt lat="25.159029" lon="121.618592">
<ele>363.7</ele>
<time>2024-09-08T06:34:01Z</time>
</trkpt>
<trkpt lat="25.159032" lon="121.618642">
<ele>363.7</ele>
<time>2024-09-08T06:34:44Z</time>
</trkpt>
<trkpt lat="25.159075" lon="121.61866">
<ele>360.4</ele>
<time>2024-09-08T06:35:05Z</time>
</trkpt>
<trkpt lat="25.159115" lon="121.618633">
<ele>361.4</ele>
<time>2024-09-08T06:36:04Z</time>
</trkpt>
<trkpt lat="25.159067" lon="121.61864">
<ele>362.6</ele>
<time>2024-09-08T06:36:26Z</time>
</trkpt>
<trkpt lat="25.159017" lon="121.618634">
<ele>362.5</ele>
<time>2024-09-08T06:37:30Z</time>
</trkpt>
<trkpt lat="25.159062" lon="121.618622">
<ele>359.7</ele>
<time>2024-09-08T06:38:22Z</time>
</trkpt>
<trkpt lat="25.158972" lon="121.618652">
<ele>363.2</ele>
<time>2024-09-08T06:38:43Z</time>
</trkpt>
<trkpt lat="25.158936" lon="121.618591">
<ele>369.8</ele>
<time>2024-09-08T06:39:04Z</time>
</trkpt>
<trkpt lat="25.159016" lon="121.618638">
<ele>373.6</ele>
<time>2024-09-08T06:39:25Z</time>
</trkpt>
<trkpt lat="25.159001" lon="121.618586">
<ele>368</ele>
<time>2024-09-08T06:39:46Z</time>
</trkpt>
<trkpt lat="25.159073" lon="121.618589">
<ele>370.2</ele>
<time>2024-09-08T06:40:40Z</time>
</trkpt>
<trkpt lat="25.159009" lon="121.618587">
<ele>371.6</ele>
<time>2024-09-08T06:41:01Z</time>
</trkpt>
<trkpt lat="25.158932" lon="121.618581">
<ele>373.5</ele>
<time>2024-09-08T06:41:22Z</time>
</trkpt>
<trkpt lat="25.158932" lon="121.618636">
<ele>379.7</ele>
<time>2024-09-08T06:41:45Z</time>
</trkpt>
<trkpt lat="25.158984" lon="121.618624">
<ele>382.4</ele>
<time>2024-09-08T06:42:06Z</time>
</trkpt>
<trkpt lat="25.158932" lon="121.61863">
<ele>374.7</ele>
<time>2024-09-08T06:42:27Z</time>
</trkpt>
<trkpt lat="25.158998" lon="121.618585">
<ele>367.7</ele>
<time>2024-09-08T06:42:48Z</time>
</trkpt>
<trkpt lat="25.158928" lon="121.618596">
<ele>376.3</ele>
<time>2024-09-08T06:43:15Z</time>
</trkpt>
<trkpt lat="25.158918" lon="121.618548">
<ele>375.3</ele>
<time>2024-09-08T06:43:39Z</time>
</trkpt>
<trkpt lat="25.158892" lon="121.618609">
<ele>374.9</ele>
<time>2024-09-08T06:44:21Z</time>
</trkpt>
<trkpt lat="25.15894" lon="121.618522">
<ele>369.1</ele>
<time>2024-09-08T06:44:42Z</time>
</trkpt>
<trkpt lat="25.158992" lon="121.618552">
<ele>368.1</ele>
<time>2024-09-08T06:45:03Z</time>
</trkpt>
<trkpt lat="25.158956" lon="121.618593">
<ele>370.5</ele>
<time>2024-09-08T06:46:02Z</time>
</trkpt>
<trkpt lat="25.159019" lon="121.618586">
<ele>368</ele>
<time>2024-09-08T06:46:23Z</time>
</trkpt>
<trkpt lat="25.158944" lon="121.618551">
<ele>368.8</ele>
<time>2024-09-08T06:46:44Z</time>
</trkpt>
<trkpt lat="25.158868" lon="121.618583">
<ele>365</ele>
<time>2024-09-08T06:47:05Z</time>
</trkpt>
<trkpt lat="25.15886" lon="121.618733">
<ele>364.6</ele>
<time>2024-09-08T06:47:26Z</time>
</trkpt>
<trkpt lat="25.158845" lon="121.61888">
<ele>360.5</ele>
<time>2024-09-08T06:47:47Z</time>
</trkpt>
<trkpt lat="25.158787" lon="121.618927">
<ele>358.4</ele>
<time>2024-09-08T06:48:07Z</time>
</trkpt>
<trkpt lat="25.158823" lon="121.618962">
<ele>359</ele>
<time>2024-09-08T06:48:29Z</time>
</trkpt>
<trkpt lat="25.158819" lon="121.619018">
<ele>358.9</ele>
<time>2024-09-08T06:48:50Z</time>
</trkpt>
<trkpt lat="25.15881" lon="121.619234">
<ele>356.2</ele>
<time>2024-09-08T06:49:11Z</time>
</trkpt>
<trkpt lat="25.158722" lon="121.619412">
<ele>356.5</ele>
<time>2024-09-08T06:49:32Z</time>
</trkpt>
<trkpt lat="25.158629" lon="121.619591">
<ele>358.7</ele>
<time>2024-09-08T06:49:53Z</time>
</trkpt>
<trkpt lat="25.158585" lon="121.619716">
<ele>356.5</ele>
<time>2024-09-08T06:50:13Z</time>
</trkpt>
<trkpt lat="25.158548" lon="121.619859">
<ele>355.6</ele>
<time>2024-09-08T06:50:34Z</time>
</trkpt>
<trkpt lat="25.158495" lon="121.620041">
<ele>357</ele>
<time>2024-09-08T06:50:55Z</time>
</trkpt>
<trkpt lat="25.15829" lon="121.620037">
<ele>355.4</ele>
<time>2024-09-08T06:51:16Z</time>
</trkpt>
<trkpt lat="25.158307" lon="121.620175">
<ele>363.9</ele>
<time>2024-09-08T06:51:37Z</time>
</trkpt>
<trkpt lat="25.158332" lon="121.620359">
<ele>357</ele>
<time>2024-09-08T06:51:58Z</time>
</trkpt>
<trkpt lat="25.158339" lon="121.620459">
<ele>354.3</ele>
<time>2024-09-08T06:52:18Z</time>
</trkpt>
<trkpt lat="25.158224" lon="121.620645">
<ele>360.7</ele>
<time>2024-09-08T06:52:39Z</time>
</trkpt>
<trkpt lat="25.158195" lon="121.620706">
<ele>353</ele>
<time>2024-09-08T06:53:00Z</time>
</trkpt>
<trkpt lat="25.158187" lon="121.620844">
<ele>354.5</ele>
<time>2024-09-08T06:53:21Z</time>
</trkpt>
<trkpt lat="25.158044" lon="121.620702">
<ele>354.5</ele>
<time>2024-09-08T06:53:42Z</time>
</trkpt>
<trkpt lat="25.157867" lon="121.620852">
<ele>361.5</ele>
<time>2024-09-08T06:54:03Z</time>
</trkpt>
<trkpt lat="25.157935" lon="121.62101">
<ele>362.5</ele>
<time>2024-09-08T06:54:23Z</time>
</trkpt>
<trkpt lat="25.157881" lon="121.621076">
<ele>358.7</ele>
<time>2024-09-08T06:54:43Z</time>
</trkpt>
<trkpt lat="25.157927" lon="121.621226">
<ele>357.4</ele>
<time>2024-09-08T06:55:03Z</time>
</trkpt>
<trkpt lat="25.158019" lon="121.621333">
<ele>354.6</ele>
<time>2024-09-08T06:55:24Z</time>
</trkpt>
<trkpt lat="25.158141" lon="121.621409">
<ele>351.4</ele>
<time>2024-09-08T06:55:45Z</time>
</trkpt>
<trkpt lat="25.158254" lon="121.621486">
<ele>345.9</ele>
<time>2024-09-08T06:56:06Z</time>
</trkpt>
<trkpt lat="25.158425" lon="121.621582">
<ele>346.2</ele>
<time>2024-09-08T06:56:26Z</time>
</trkpt>
<trkpt lat="25.158462" lon="121.621678">
<ele>342.8</ele>
<time>2024-09-08T06:56:46Z</time>
</trkpt>
<trkpt lat="25.158497" lon="121.621801">
<ele>338.8</ele>
<time>2024-09-08T06:57:07Z</time>
</trkpt>
<trkpt lat="25.158453" lon="121.621921">
<ele>333.9</ele>
<time>2024-09-08T06:57:28Z</time>
</trkpt>
<trkpt lat="25.158305" lon="121.621916">
<ele>342.6</ele>
<time>2024-09-08T06:57:49Z</time>
</trkpt>
<trkpt lat="25.15815" lon="121.622066">
<ele>344.9</ele>
<time>2024-09-08T06:58:10Z</time>
</trkpt>
<trkpt lat="25.158229" lon="121.622166">
<ele>344.3</ele>
<time>2024-09-08T06:58:30Z</time>
</trkpt>
<trkpt lat="25.158322" lon="121.622275">
<ele>343.2</ele>
<time>2024-09-08T06:58:51Z</time>
</trkpt>
<trkpt lat="25.158427" lon="121.622395">
<ele>338.7</ele>
<time>2024-09-08T06:59:12Z</time>
</trkpt>
<trkpt lat="25.158645" lon="121.622516">
<ele>336.3</ele>
<time>2024-09-08T06:59:33Z</time>
</trkpt>
<trkpt lat="25.158527" lon="121.622612">
<ele>331.8</ele>
<time>2024-09-08T06:59:54Z</time>
</trkpt>
<trkpt lat="25.158339" lon="121.622679">
<ele>334.8</ele>
<time>2024-09-08T07:00:15Z</time>
</trkpt>
<trkpt lat="25.158197" lon="121.622706">
<ele>336.8</ele>
<time>2024-09-08T07:00:36Z</time>
</trkpt>
<trkpt lat="25.158149" lon="121.622924">
<ele>340</ele>
<time>2024-09-08T07:00:56Z</time>
</trkpt>
<trkpt lat="25.158077" lon="121.623096">
<ele>337.1</ele>
<time>2024-09-08T07:01:16Z</time>
</trkpt>
<trkpt lat="25.157979" lon="121.623227">
<ele>334.5</ele>
<time>2024-09-08T07:01:37Z</time>
</trkpt>
<trkpt lat="25.157827" lon="121.623191">
<ele>333.4</ele>
<time>2024-09-08T07:01:58Z</time>
</trkpt>
<trkpt lat="25.157673" lon="121.623288">
<ele>337.1</ele>
<time>2024-09-08T07:02:19Z</time>
</trkpt>
<trkpt lat="25.15766" lon="121.623572">
<ele>340.2</ele>
<time>2024-09-08T07:02:40Z</time>
</trkpt>
<trkpt lat="25.157632" lon="121.623658">
<ele>334.6</ele>
<time>2024-09-08T07:03:00Z</time>
</trkpt>
<trkpt lat="25.157659" lon="121.623933">
<ele>333.3</ele>
<time>2024-09-08T07:03:20Z</time>
</trkpt>
<trkpt lat="25.157659" lon="121.623997">
<ele>321.7</ele>
<time>2024-09-08T07:03:40Z</time>
</trkpt>
<trkpt lat="25.157619" lon="121.624221">
<ele>328.7</ele>
<time>2024-09-08T07:04:00Z</time>
</trkpt>
<trkpt lat="25.157606" lon="121.624279">
<ele>330.1</ele>
<time>2024-09-08T07:04:20Z</time>
</trkpt>
<trkpt lat="25.157558" lon="121.624481">
<ele>333.3</ele>
<time>2024-09-08T07:04:40Z</time>
</trkpt>
<trkpt lat="25.157523" lon="121.624443">
<ele>330.5</ele>
<time>2024-09-08T07:08:21Z</time>
</trkpt>
<trkpt lat="25.157365" lon="121.624355">
<ele>336</ele>
<time>2024-09-08T07:08:42Z</time>
</trkpt>
<trkpt lat="25.157357" lon="121.624277">
<ele>332.1</ele>
<time>2024-09-08T07:09:02Z</time>
</trkpt>
<trkpt lat="25.157313" lon="121.624312">
<ele>334.3</ele>
<time>2024-09-08T07:09:24Z</time>
</trkpt>
<trkpt lat="25.15727" lon="121.624285">
<ele>337.6</ele>
<time>2024-09-08T07:09:58Z</time>
</trkpt>
<trkpt lat="25.157301" lon="121.624335">
<ele>340.3</ele>
<time>2024-09-08T07:11:26Z</time>
</trkpt>
<trkpt lat="25.15736" lon="121.624357">
<ele>339.5</ele>
<time>2024-09-08T07:11:47Z</time>
</trkpt>
<trkpt lat="25.157337" lon="121.624313">
<ele>337.2</ele>
<time>2024-09-08T07:12:40Z</time>
</trkpt>
<trkpt lat="25.157298" lon="121.624273">
<ele>332.5</ele>
<time>2024-09-08T07:13:01Z</time>
</trkpt>
<trkpt lat="25.157332" lon="121.624311">
<ele>336.9</ele>
<time>2024-09-08T07:13:24Z</time>
</trkpt>
<trkpt lat="25.157327" lon="121.624258">
<ele>331.6</ele>
<time>2024-09-08T07:13:55Z</time>
</trkpt>
<trkpt lat="25.15735" lon="121.624353">
<ele>338.8</ele>
<time>2024-09-08T07:14:16Z</time>
</trkpt>
<trkpt lat="25.157357" lon="121.624298">
<ele>335.3</ele>
<time>2024-09-08T07:15:15Z</time>
</trkpt>
<trkpt lat="25.15739" lon="121.624349">
<ele>342</ele>
<time>2024-09-08T07:25:13Z</time>
</trkpt>
<trkpt lat="25.157528" lon="121.624554">
<ele>345.7</ele>
<time>2024-09-08T07:25:34Z</time>
</trkpt>
<trkpt lat="25.157542" lon="121.624504">
<ele>343.4</ele>
<time>2024-09-08T07:26:01Z</time>
</trkpt>
<trkpt lat="25.157589" lon="121.624506">
<ele>344.6</ele>
<time>2024-09-08T07:28:44Z</time>
</trkpt>
<trkpt lat="25.157543" lon="121.624535">
<ele>344.5</ele>
<time>2024-09-08T07:29:08Z</time>
</trkpt>
</trkseg>
</trk>
</gpx>
